[{"OBJECT_NAME":"AFR-1","OBJECT_ID":"2023-084AJ","EPOCH":"2026-03-09T23:02:07.499328","MEAN_MOTION":15.27543824,"ECCENTRICITY":0.00099838,"INCLINATION":97.6099,"RA_OF_ASC_NODE":203.4313,"ARG_OF_PERICENTER":334.9676,"MEAN_ANOMALY":25.1077,"EPHEMERIS_TYPE":0,"CLASSIFICATION_TYPE":"U","NORAD_CAT_ID":56964,"ELEMENT_SET_NO":999,"REV_AT_EPOCH":15207,"BSTAR":0.00024843733,"MEAN_MOTION_DOT":6.624e-5,"MEAN_MOTION_DDOT":0},{"OBJECT_NAME":"STARLINK-34351","OBJECT_ID":"2025-127T","EPOCH":"2026-03-09T07:32:12.472800","MEAN_MOTION":15.27598977,"ECCENTRICITY":1.197e-5,"INCLINATION":42.995,"RA_OF_ASC_NODE":181.5511,"ARG_OF_PERICENTER":283.2524,"MEAN_ANOMALY":76.8314,"EPHEMERIS_TYPE":0,"CLASSIFICATION_TYPE":"U","NORAD_CAT_ID":64387,"ELEMENT_SET_NO":999,"REV_AT_EPOCH":4241,"BSTAR":0.0012051213,"MEAN_MOTION_DOT":0.00033068,"MEAN_MOTION_DDOT":0}]
